OBJECT_NAME,OBJECT_ID,EPOCH,MEAN_MOTION,ECCENTRICITY,INCLINATION,RA_OF_ASC_NODE,ARG_OF_PERICENTER,MEAN_ANOMALY,EPHEMERIS_TYPE,CLASSIFICATION_TYPE,NORAD_CAT_ID,ELEMENT_SET_NO,REV_AT_EPOCH,BSTAR,MEAN_MOTION_DOT,MEAN_MOTION_DDOT
IRIDIUM 138,2017-083B,2024-01-20T08:56:38.972256,14.34217469,.0002252,86.3981,329.0386,77.4427,282.7021,0,U,43071,999,31817,.14222E-3,.418E-5,0
IRIDIUM 116,2017-083C,2024-01-20T08:10:58.222560,14.34222991,.0002172,86.3994,329.3122,89.5054,270.6390,0,U,43072,999,31820,.18471E-3,.537E-5,0
IRIDIUM 130,2017-083D,2024-01-20T09:05:47.715936,14.34217116,.0003634,86.4046,329.4762,58.7606,301.3946,0,U,43073,999,31815,.21198E-3,.613E-5,0
IRIDIUM 151,2017-083E,2024-01-20T08:29:15.144000,14.34215488,.0002457,86.3992,329.3450,87.0509,273.0968,0,U,43074,999,31817,.21122E-3,.611E-5,0
IRIDIUM 134,2017-083F,2024-01-20T09:24:02.416896,14.34215272,.0001981,86.3994,329.3252,82.8237,277.3184,0,U,43075,999,31814,.19804E-3,.574E-5,0
IRIDIUM 137,2017-083G,2024-01-20T09:42:18.942624,14.34216158,.0002199,86.3996,329.3952,93.8784,266.2663,0,U,43076,999,31821,.15746E-3,.461E-5,0
IRIDIUM 141,2017-083H,2024-01-20T14:34:33.205728,14.34210339,.000222,86.3992,329.1907,83.4144,276.7304,0,U,43077,999,31824,.16737E-3,.488E-5,0
IRIDIUM 153,2017-083J,2024-01-20T06:43:51.054528,14.34215711,.0002605,86.3977,297.7795,73.8580,286.2902,0,U,43078,999,31930,.19771E-3,.573E-5,0
IRIDIUM 131,2017-083K,2024-01-20T09:14:54.985632,14.34216638,.0002174,86.3997,329.4107,86.1228,274.0217,0,U,43079,999,31814,.19467E-3,.565E-5,0
IRIDIUM 144,2018-030A,2024-01-20T06:52:59.205504,14.34216785,.0001877,86.3975,297.7287,84.1447,275.9962,0,U,43249,999,30416,-.33545E-4,-.74E-6,0
IRIDIUM 149,2018-030B,2024-01-20T13:43:59.096928,14.34215672,.0001891,86.3973,297.5862,87.4410,272.7002,0,U,43250,999,30422,.14087E-3,.414E-5,0
IRIDIUM 157,2018-030C,2024-01-20T07:29:31.196832,14.34219689,.0002368,86.3975,297.7286,85.8531,274.2935,0,U,43251,999,30416,.15576E-3,.456E-5,0
IRIDIUM 140,2018-030D,2024-01-20T19:40:11.224704,14.34218886,.0001703,86.3977,297.5310,77.3558,282.7828,0,U,43252,999,30429,.69456E-4,.214E-5,0
IRIDIUM 145,2018-030E,2024-01-20T19:21:55.298592,14.34217367,.0001776,86.3973,297.5106,85.6486,274.4913,0,U,43253,999,30422,.15055E-3,.441E-5,0
IRIDIUM 146,2018-030F,2024-01-20T07:11:15.240480,14.34216828,.0001765,86.3974,297.7376,86.8429,273.2968,0,U,43254,999,30416,.13833E-3,.407E-5,0
IRIDIUM 148,2018-030G,2024-01-20T19:49:18.099552,14.34214645,.0002116,86.3976,297.5478,93.9192,266.2246,0,U,43255,999,30428,.20806E-3,.602E-5,0
IRIDIUM 142,2018-030H,2024-01-20T07:20:22.716672,14.34214124,.0001834,86.3972,297.6865,86.9429,273.1976,0,U,43256,999,30416,.17204E-3,.502E-5,0
IRIDIUM 150,2018-030J,2024-01-20T19:58:27.338304,14.34218677,.0001699,86.3975,297.5538,79.1115,281.0271,0,U,43257,999,30428,.19962E-3,.579E-5,0
IRIDIUM 143,2018-030K,2024-01-20T07:47:47.242176,14.34217322,.0001692,86.3981,297.8237,86.8126,273.3263,0,U,43258,999,30412,.18497E-3,.538E-5,0
IRIDIUM 161,2018-047C,2024-01-20T14:36:17.836992,14.43310557,.0002188,86.4479,95.6860,93.0718,267.0733,0,U,43478,999,29841,.19862E-3,.689E-5,0
IRIDIUM 152,2018-047D,2024-01-20T13:50:22.217856,14.34218375,.0002019,86.3952,95.5586,98.7258,261.4166,0,U,43479,999,29655,.17091E-3,.498E-5,0
IRIDIUM 147,2018-047E,2024-01-20T13:59:30.302304,14.34217525,.0002297,86.3953,95.5457,89.9870,270.1589,0,U,43480,999,29655,.22936E-3,.662E-5,0
IRIDIUM 110,2018-047F,2024-01-20T14:08:38.258016,14.34218314,.0002294,86.3960,95.6127,83.2214,276.9243,0,U,43481,999,29654,.10981E-3,.327E-5,0
IRIDIUM 162,2018-047G,2024-01-20T14:27:18.894528,14.43308805,.0002176,86.4478,95.5909,93.2830,266.8620,0,U,43482,999,29840,.19572E-3,.679E-5,0
IRIDIUM 160,2018-061A,2024-01-20T14:31:06.502368,14.34217659,.0002581,86.3937,63.9529,98.3855,261.7633,0,U,43569,999,28744,.86128E-4,.261E-5,0
IRIDIUM 166,2018-061B,2024-01-20T13:27:10.348416,14.34217583,.0001851,86.3938,63.9340,85.1261,275.0146,0,U,43570,999,28746,.71684E-4,.221E-5,0
IRIDIUM 158,2018-061C,2024-01-20T16:02:26.014560,14.34216725,.0001973,86.3937,63.8979,98.4697,261.6723,0,U,43571,999,28745,.16903E-3,.493E-5,0
IRIDIUM 165,2018-061D,2024-01-20T11:37:33.789504,14.34221448,.0001991,86.3938,64.0044,100.6044,259.5376,0,U,43572,999,28744,.13278E-3,.392E-5,0
IRIDIUM 155,2018-061E,2024-01-20T15:44:10.443552,14.34216499,.0002223,86.3935,63.8455,87.8710,272.2740,0,U,43573,999,28744,.12573E-3,.372E-5,0
IRIDIUM 154,2018-061F,2024-01-20T18:37:42.337344,14.34218871,.000241,86.3938,63.8855,96.9438,263.2032,0,U,43574,999,28750,.15703E-3,.46E-5,0
IRIDIUM 163,2018-061G,2024-01-20T14:49:22.251360,14.34216466,.000228,86.3937,63.8947,94.2607,265.8849,0,U,43575,999,28745,.13576E-3,.4E-5,0
